*******************************************************************************
 Revised: Jul 11, 2019                  EM-L1                              3011
                               (Earth-Moon Lagrange 1)       

  #1) The Earth-Moon Lagrange-1 point (EM-L1) is an equilibirium location where
       the Moon's gravitational field partially counters that of the Earth.

  #2) This point is between the Earth and Moon, about 84.907% of the distance 
       from the Earth's center in the direction of the Moon's center (303000 
       to 345000 km from Earth,averaging ~327000 km), or 15.093% from the Moon
       in the direction of the Earth (53800 to 61400 km from Moon, averaging 
       ~58100 km).

  #4) EM-L1 is an unstable equilibrium point. This means an object at that 
       location will remain there unless disturbed, whereupon it will move 
       away.  In practice, there will always be some disturbance. 

 Time-span available: 1900-Jan-01 to 2151-Jan-01
*******************************************************************************


*******************************************************************************
Ephemeris / WWW_USER Sun Jan 30 17:53:12 2022 Pasadena, USA      / Horizons
*******************************************************************************
Target body name: EM-L1 (3011)                    {source: Earth-Moon_L1}
Center body name: Solar System Barycenter (0)     {source: DE441}
Center-site name: BODY CENTER
*******************************************************************************
Start time      : A.D. 2020-Jan-01 00:00:00.0000 TDB
Stop  time      : A.D. 2022-Mar-01 00:00:00.0000 TDB
Step-size       : 360 minutes
*******************************************************************************
Center geodetic : 0.00000000,0.00000000,0.0000000 {E-lon(deg),Lat(deg),Alt(km)}
Center cylindric: 0.00000000,0.00000000,0.0000000 {E-lon(deg),Dxy(km),Dz(km)}
Center radii    : (undefined)                                                  
Output units    : AU-D
Output type     : GEOMETRIC cartesian states
Output format   : 2 (position and velocity)
Reference frame : ICRF
*******************************************************************************
JDTDB
   X     Y     Z
   VX    VY    VZ
*******************************************************************************
$$SOE
2458963.250000000 = A.D. 2020-Apr-23 18:00:00.0000 TDB 
 X =-8.391308712868799E-01 Y =-5.048315310012070E-01 Z =-2.189526702982743E-01
 VX= 8.956221043852684E-03 VY=-1.287442696633280E-02 VZ=-5.550373144548119E-03
2458963.500000000 = A.D. 2020-Apr-24 00:00:00.0000 TDB 
 X =-8.368865921633114E-01 Y =-5.080475134542028E-01 Z =-2.203388908258031E-01
 VX= 8.998125870541924E-03 VY=-1.285355047681568E-02 VZ=-5.539456115668311E-03
2458963.750000000 = A.D. 2020-Apr-24 06:00:00.0000 TDB 
 X =-8.346317491444445E-01 Y =-5.112583636460205E-01 Z =-2.217224304550515E-01
 VX= 9.040741144525207E-03 VY=-1.283336277979749E-02 VZ=-5.528924233753038E-03
2458964.000000000 = A.D. 2020-Apr-24 12:00:00.0000 TDB 
 X =-8.323661579647046E-01 Y =-5.144642490965425E-01 Z =-2.231033841287657E-01
 VX= 9.084119891653903E-03 VY=-1.281382602788395E-02 VZ=-5.518766544159415E-03
2458964.250000000 = A.D. 2020-Apr-24 18:00:00.0000 TDB 
 X =-8.300896212605646E-01 Y =-5.176653275480109E-01 Z =-2.244818438985990E-01
 VX= 9.128313848100925E-03 VY=-1.279489984872924E-02 VZ=-5.508970871185182E-03
2458964.500000000 = A.D. 2020-Apr-25 00:00:00.0000 TDB 
 X =-8.278019289091859E-01 Y =-5.208617463350422E-01 Z =-2.258578986187361E-01
 VX= 9.173373330513195E-03 VY=-1.277654135589657E-02 VZ=-5.499523809533567E-03
2458964.750000000 = A.D. 2020-Apr-25 06:00:00.0000 TDB 
 X =-8.255028583995595E-01 Y =-5.240536417579569E-01 Z =-2.272316336376372E-01
 VX= 9.219347105914268E-03 VY=-1.275870516438848E-02 VZ=-5.490410717766027E-03
2458965.000000000 = A.D. 2020-Apr-25 12:00:00.0000 TDB 
 X =-8.231921752361848E-01 Y =-5.272411384604967E-01 Z =-2.286031304883634E-01
 VX= 9.266282261505400E-03 VY=-1.274134341010356E-02 VZ=-5.481615713440928E-03
2458965.250000000 = A.D. 2020-Apr-25 18:00:00.0000 TDB 
 X =-8.208696333753147E-01 Y =-5.304243488128125E-01 Z =-2.299724665778612E-01
 VX= 9.314224074302088E-03 VY=-1.272440577240419E-02 VZ=-5.473121669586439E-03
2458965.500000000 = A.D. 2020-Apr-26 00:00:00.0000 TDB 
 X =-8.185349756938485E-01 Y =-5.336033723004112E-01 Z =-2.313397148754943E-01
 VX= 9.363215880227290E-03 VY=-1.270783949908780E-02 VZ=-5.464910212148481E-03
2458965.750000000 = A.D. 2020-Apr-26 06:00:00.0000 TDB 
 X =-8.161879344910770E-01 Y =-5.367782949195636E-01 Z =-2.327049436010213E-01
 VX= 9.413298942082194E-03 VY=-1.269158943301658E-02 VZ=-5.456961718050484E-03
2458966.000000000 = A.D. 2020-Apr-26 12:00:00.0000 TDB 
 X =-8.138282320236678E-01 Y =-5.399491885795187E-01 Z =-2.340682159121295E-01
 VX= 9.464512315484102E-03 VY=-1.267559803984079E-02 VZ=-5.449255313527874E-03
2458966.250000000 = A.D. 2020-Apr-26 18:00:00.0000 TDB 
 X =-8.114555810745353E-01 Y =-5.431161105117397E-01 Z =-2.354295895915559E-01
 VX= 9.516892711631846E-03 VY=-1.265980543639999E-02 VZ=-5.441768872446310E-03
2458966.500000000 = A.D. 2020-Apr-27 00:00:00.0000 TDB 
 X =-8.090696855565610E-01 Y =-5.462791026863022E-01 Z =-2.367891167337609E-01
 VX= 9.570474355496355E-03 VY=-1.264414941960526E-02 VZ=-5.434479014379962E-03
2458966.750000000 = A.D. 2020-Apr-27 06:00:00.0000 TDB 
 X =-8.066702411524990E-01 Y =-5.494381912355761E-01 Z =-2.381468434310785E-01
 VX= 9.625288837850550E-03 VY=-1.262856549586769E-02 VZ=-5.427361102330307E-03
2458967.000000000 = A.D. 2020-Apr-27 12:00:00.0000 TDB 
 X =-8.042569359928399E-01 Y =-5.525933858853729E-01 Z =-2.395028094592482E-01
 VX= 9.681364959267759E-03 VY=-1.261298691148592E-02 VZ=-5.420389240073822E-03
2458967.250000000 = A.D. 2020-Apr-27 18:00:00.0000 TDB 
 X =-8.018294513738674E-01 Y =-5.557446793938827E-01 Z =-2.408570479622520E-01
 VX= 9.738728564246518E-03 VY=-1.259734468474342E-02 VZ=-5.413536269291384E-03
2458967.500000000 = A.D. 2020-Apr-28 00:00:00.0000 TDB 
 X =-7.993874625186397E-01 Y =-5.588920469989731E-01 Z =-2.422095851364378E-01
 VX= 9.797402363349814E-03 VY=-1.258156764093197E-02 VZ=-5.406773766797204E-03
2458967.750000000 = A.D. 2020-Apr-28 06:00:00.0000 TDB 
 X =-7.969306393841398E-01 Y =-5.620354458747728E-01 Z =-2.435604399140132E-01
 VX= 9.857405741371925E-03 VY=-1.256558245193766E-02 VZ=-5.400072042384168E-03
2458968.000000000 = A.D. 2020-Apr-28 12:00:00.0000 TDB 
 X =-7.944586475183369E-01 Y =-5.651748145989454E-01 Z =-2.449096236461535E-01
 VX= 9.918754549570814E-03 VY=-1.254931368255676E-02 VZ=-5.393400138030612E-03
2458968.250000000 = A.D. 2020-Apr-28 18:00:00.0000 TDB 
 X =-7.919711489713748E-01 Y =-5.683100726326514E-01 Z =-2.462571397861811E-01
 VX= 9.981460880144994E-03 VY=-1.253268384621408E-02 VZ=-5.386725829452686E-03
2458968.500000000 = A.D. 2020-Apr-29 00:00:00.0000 TDB 
 X =-7.894678032655195E-01 Y =-5.714411198159526E-01 Z =-2.476029835735550E-01
 VX= 1.004553282144373E-02 VY=-1.251561347331890E-02 VZ=-5.380015631257077E-03
2458968.750000000 = A.D. 2020-Apr-29 06:00:00.0000 TDB 
 X =-7.869482684288366E-01 Y =-5.745678358822673E-01 Z =-2.489471417197532E-01
 VX= 1.011097419278127E-02 VY=-1.249802119603879E-02 VZ=-5.373234807226182E-03
2458969.000000000 = A.D. 2020-Apr-29 12:00:00.0000 TDB 
 X =-7.844122020977847E-01 Y =-5.776900799965177E-01 Z =-2.502895920975534E-01
 VX= 1.017778425824683E-02 VY=-1.247982385379145E-02 VZ=-5.366347387526658E-03
2458969.250000000 = A.D. 2020-Apr-29 18:00:00.0000 TDB 
 X =-7.818592626939811E-01 Y =-5.808076903227350E-01 Z =-2.516303034356989E-01
 VX= 1.024595741958701E-02 VY=-1.246093662426970E-02 VZ=-5.359316194968790E-03
2458969.500000000 = A.D. 2020-Apr-30 00:00:00.0000 TDB 
 X =-7.792891106802757E-01 Y =-5.839204836281598E-01 Z =-2.529692350215031E-01
 VX= 1.031548288908506E-02 VY=-1.244127318528097E-02 VZ=-5.352102882662184E-03
2458969.750000000 = A.D. 2020-Apr-30 06:00:00.0000 TDB 
 X =-7.767014099009217E-01 Y =-5.870282549322297E-01 Z =-2.543063364145642E-01
 VX= 1.038634434432777E-02 VY=-1.242074591297789E-02 VZ=-5.344667985705966E-03
2458970.000000000 = A.D. 2020-Apr-30 12:00:00.0000 TDB 
 X =-7.740958290100106E-01 Y =-5.901307772102850E-01 Z =-2.556415471754490E-01
 VX= 1.045851956793944E-02 VY=-1.239926612234105E-02 VZ=-5.336970989740053E-03
2458970.250000000 = A.D. 2020-Apr-30 18:00:00.0000 TDB 
 X =-7.714720429914085E-01 Y =-5.932278011632910E-01 Z =-2.569747966139351E-01
 VX= 1.053198007667683E-02 VY=-1.237674435582261E-02 VZ=-5.328970419361799E-03
2458970.500000000 = A.D. 2020-May-01 00:00:00.0000 TDB 
 X =-7.688297347721550E-01 Y =-5.963190550663469E-01 Z =-2.583060035621604E-01
 VX= 1.060669074575362E-02 VY=-1.235309072591692E-02 VZ=-5.320623949493888E-03
2458970.750000000 = A.D. 2020-May-01 06:00:00.0000 TDB 
 X =-7.661685969296168E-01 Y =-5.994042447101423E-01 Z =-2.596350761788044E-01
 VX= 1.068260943585887E-02 VY=-1.232821531704920E-02 VZ=-5.311888542770316E-03
2458971.000000000 = A.D. 2020-May-01 12:00:00.0000 TDB 
 X =-7.634883334906177E-01 Y =-6.024830534508042E-01 Z =-2.609619117911763E-01
 VX= 1.075968663198127E-02 VY=-1.230202865147955E-02 VZ=-5.302720615880973E-03
2458971.250000000 = A.D. 2020-May-01 18:00:00.0000 TDB 
 X =-7.607886618182700E-01 Y =-6.055551423846128E-01 Z =-2.622863967827924E-01
 VX= 1.083786510493313E-02 VY=-1.227444222289883E-02 VZ=-5.293076237548242E-03
2458971.500000000 = A.D. 2020-May-02 00:00:00.0000 TDB 
 X =-7.580693145793073E-01 Y =-6.086201506648354E-01 Z =-2.636084065346376E-01
 VX= 1.091707960803461E-02 VY=-1.224536909999227E-02 VZ=-5.282911360354553E-03
2458971.750000000 = A.D. 2020-May-02 06:00:00.0000 TDB 
 X =-7.553300417813978E-01 Y =-6.116776959782658E-01 Z =-2.649278054287898E-01
 VX= 1.099725662304017E-02 VY=-1.221472460043189E-02 VZ=-5.272182088010281E-03
